NORAD_CAT_ID,OBJECT_NAME,OBJECT_TYPE,EPOCH,MEAN_MOTION,ECCENTRICITY,INCLINATION,RA_OF_ASC_NODE,ARG_OF_PERICENTER,MEAN_ANOMALY,BSTAR,MEAN_MOTION_DOT,MEAN_MOTION_DDOT,TLE_LINE0,TLE_LINE1,TLE_LINE2,SEMIMAJOR_AXIS,PERIOD,APOGEE,PERIGEE,DECAYED
51858.0,STARLINK-3563,PAYLOAD,2022-04-09 14:00:01,15.48288926,0.00012,53.2175,322.7593,67.7799,264.4182,-0.014457,-0.00718332,0.0,0 STARLINK-3563,1 51858U 22022G   22099.58334491 -.00718332  00000-0 -14457-1 0  9992,2 51858  53.2175 322.7593 0001200  67.7799 264.4182 15.48288926  3701,6799.868,93.006,422.549,420.917,0.0
51858.0,STARLINK-3563,PAYLOAD,2022-04-09 22:00:00,15.47782349,0.0001381,53.2175,321.1716,48.1271,342.7554,-0.0148479999999999,-0.00724313,0.0,0 STARLINK-3563,1 51858U 22022G   22099.91667824 -.00724313  00000-0 -14848-1 0  9998,2 51858  53.2175 321.1716 0001381  48.1271 342.7554 15.47782349  7118,6801.352,93.036,424.156,422.278,0.0
51858.0,STARLINK-3563,PAYLOAD,2022-04-10 14:00:01,15.46760912,0.0001327,53.2174,317.994,65.8905,80.5287,-0.015305,-0.00720731,0.0,0 STARLINK-3563,1 51858U 22022G   22100.58334491 -.00720731  00000-0 -15305-1 0  9994,2 51858  53.2174 317.9940 0001327  65.8905  80.5287 15.46760912  3699,6804.346,93.098,427.114,425.3080000000001,0.0
51858.0,STARLINK-3563,PAYLOAD,2022-04-10 22:00:00,15.46249999,0.0001492,53.2173,316.4099,59.2136,144.0535,-0.015558,-0.00719861,0.0,0 STARLINK-3563,1 51858U 22022G   22100.91667824 -.00719861  00000-0 -15558-1 0  9992,2 51858  53.2173 316.4099 0001492  59.2136 144.0535 15.46249999  3692,6805.845,93.129,428.725,426.694,0.0
51858.0,STARLINK-3563,PAYLOAD,2022-04-11 04:00:01,15.45868316,0.0001259,53.2171,315.2208,73.0719,82.4937,-0.015794,-0.00721059,0.0,0 STARLINK-3563,1 51858U 22022G   22101.16668981 -.00721059  00000-0 -15794-1 0  9999,2 51858  53.2171 315.2208 0001259  73.0719  82.4937 15.45868316  7314,6806.965,93.152,429.687,427.973,0.0
51858.0,STARLINK-3563,PAYLOAD,2022-04-11 14:00:01,15.4522936,0.0001233,53.2175,313.2395,72.8603,242.2664,-0.016063,-0.00717628,0.0,0 STARLINK-3563,1 51858U 22022G   22101.58334491 -.00717628  00000-0 -16063-1 0  9998,2 51858  53.2175 313.2395 0001233  72.8603 242.2664 15.45229360  3694,6808.840999999999,93.19,431.546,429.867,0.0
51858.0,STARLINK-3563,PAYLOAD,2022-04-11 22:00:00,15.44722251,0.0001319,53.2175,311.6593,54.3347,315.8,-0.016489,-0.00723488,0.0,0 STARLINK-3563,1 51858U 22022G   22101.91667824 -.00723488  00000-0 -16489-1 0  9997,2 51858  53.2175 311.6593 0001319  54.3347 315.8000 15.44722251  3687,6810.331,93.221,433.095,431.298,0.0
51858.0,STARLINK-3563,PAYLOAD,2022-04-12 04:00:00,15.44339623,0.0001142,53.2173,310.4727,77.5881,243.4024,-0.016693,-0.00722925,0.0,0 STARLINK-3563,1 51858U 22022G   22102.16667824 -.00722925  00000-0 -16693-1 0  9997,2 51858  53.2173 310.4727 0001142  77.5881 243.4024 15.44339623  7464,6811.456,93.244,434.099,432.543,0.0
51858.0,STARLINK-3563,PAYLOAD,2022-04-12 14:00:01,15.43700171,0.0001314,53.2177,308.4963,64.8123,53.5059,-0.016957,-0.00718863,0.0,0 STARLINK-3563,1 51858U 22022G   22102.58334491 -.00718863  00000-0 -16957-1 0  9993,2 51858  53.2177 308.4963 0001314  64.8123  53.5059 15.43700171  3683,6813.337,93.282,436.097,434.307,0.0
51858.0,STARLINK-3563,PAYLOAD,2022-04-12 22:00:00,15.43190132,0.0001575,53.2176,306.9195,51.5478,119.941,-0.017258,-0.00719079,0.0,0 STARLINK-3563,1 51858U 22022G   22102.91667824 -.00719079  00000-0 -17258-1 0  9994,2 51858  53.2176 306.9195 0001575  51.5478 119.9410 15.43190132  3674,6814.8380000000025,93.313,437.777,435.63,0.0
51858.0,STARLINK-3563,PAYLOAD,2022-04-13 14:00:03,15.42170637,0.0001361999999999,53.2177,303.7637,64.8585,211.2646,-0.0178569999999999,-0.00718824,0.0,0 STARLINK-3563,1 51858U 22022G   22103.58336806 -.00718824  00000-0 -17857-1 0  9993,2 51858  53.2177 303.7637 0001362  64.8585 211.2646 15.42170637  7680,6817.840999999999,93.375,440.635,438.778,0.0
51858.0,STARLINK-3563,PAYLOAD,2022-04-13 22:00:00,15.41661216,0.0001346,53.2176,302.1908,59.8634,267.4634,-0.018223,-0.0072093,0.0,0 STARLINK-3563,1 51858U 22022G   22103.91667824 -.00720930  00000-0 -18223-1 0  9996,2 51858  53.2176 302.1908 0001346  59.8634 267.4634 15.41661216  3687,6819.343000000003,93.406,442.126,440.29,0.0
51858.0,STARLINK-3563,PAYLOAD,2022-04-14 14:00:01,15.40640077,0.0001325,53.2176,299.0425,54.24,13.9165,-0.018783,-0.0071834,0.0,0 STARLINK-3563,1 51858U 22022G   22104.58334491 -.00718340  00000-0 -18783-1 0  9994,2 51858  53.2176 299.0425 0001325  54.2400  13.9165 15.40640077  7837,6822.356,93.468,445.125,443.317,0.0
51858.0,STARLINK-3563,PAYLOAD,2022-04-14 22:00:00,15.40129761,0.0001409,53.2175,297.473,57.2932,60.3574,-0.019102,-0.00718261,0.0,0 STARLINK-3563,1 51858U 22022G   22104.91667824 -.00718261  00000-0 -19102-1 0  9998,2 51858  53.2175 297.4730 0001409  57.2932  60.3574 15.40129761  3684,6823.863,93.499,446.689,444.767,0.0
51858.0,STARLINK-3563,PAYLOAD,2022-04-15 03:43:23,15.40798423,0.0002667,53.2178,296.362,37.5449,322.5743,-0.0082285,-0.00328379,0.0,0 STARLINK-3563,1 51858U 22022G   22105.15513870 -.00328379  00000-0 -82285-2 0  9996,2 51858  53.2178 296.3620 0002667  37.5449 322.5743 15.40798423  7923,6821.889,93.458,445.573,441.934,0.0
51858.0,STARLINK-3563,PAYLOAD,2022-04-15 14:00:01,15.39109922,0.0001456,53.2175,294.332,63.5064,151.2965,-0.019736,-0.00717534,0.0,0 STARLINK-3563,1 51858U 22022G   22105.58334491 -.00717534  00000-0 -19736-1 0  9998,2 51858  53.2175 294.3320 0001456  63.5064 151.2965 15.39109922  7990,6826.877,93.561,449.736,447.74800000000016,0.0
51858.0,STARLINK-3563,PAYLOAD,2022-04-15 22:00:00,15.38598993,0.0001443,53.2174,292.7659,61.1447,201.3141,-0.020031,-0.00716213,0.0,0 STARLINK-3563,1 51858U 22022G   22105.91667824 -.00716213  00000-0 -20031-1 0  9997,2 51858  53.2174 292.7659 0001443  61.1447 201.3141 15.38598993  3652,6828.388000000001,93.592,451.239,449.268,0.0
51858.0,STARLINK-3563,PAYLOAD,2022-04-16 14:00:01,15.375815,0.0001284,53.2175,289.6323,60.5845,295.3493,-0.020829,-0.00719998,0.0,0 STARLINK-3563,1 51858U 22022G   22106.58334491 -.00719998  00000-0 -20829-1 0  9990,2 51858  53.2175 289.6323 0001284  60.5845 295.3493 15.37581500  8141,6831.4,93.654,454.143,452.388,0.0
51858.0,STARLINK-3563,PAYLOAD,2022-04-16 22:00:01,15.37069161,0.0001273,53.2174,288.0699,58.9635,342.8525,-0.021082,-0.00716921,0.0,0 STARLINK-3563,1 51858U 22022G   22106.91668981 -.00716921  00000-0 -21082-1 0  9996,2 51858  53.2174 288.0699 0001273  58.9635 342.8525 15.37069161  3676,6832.918000000002,93.685,455.653,453.914,0.0
51858.0,STARLINK-3563,PAYLOAD,2022-04-17 14:00:01,15.36050312,0.0001508,53.2175,284.9435,52.0899,79.4608,-0.021831,-0.00718192,0.0,0 STARLINK-3563,1 51858U 22022G   22107.58334491 -.00718192  00000-0 -21831-1 0  9990,2 51858  53.2175 284.9435 0001508  52.0899  79.4608 15.36050312  3681,6835.94,93.747,458.835,456.774,0.0
51858.0,STARLINK-3563,PAYLOAD,2022-04-17 22:00:00,15.35536236,0.000145,53.2174,283.3847,59.6225,115.9085,-0.021969,-0.0071138,0.0,0 STARLINK-3563,1 51858U 22022G   22107.91667824 -.00711380  00000-0 -21969-1 0  9990,2 51858  53.2174 283.3847 0001450  59.6225 115.9085 15.35536236  3679,6837.465,93.778,460.322,458.339,0.0
51858.0,STARLINK-3563,PAYLOAD,2022-04-18 06:00:00,15.35029728,0.0001425,53.2175,281.8234,62.9118,155.986,-0.022509,-0.00716655,0.0,0 STARLINK-3563,1 51858U 22022G   22108.25001157 -.00716655  00000-0 -22509-1 0  9990,2 51858  53.2175 281.8234 0001425  62.9118 155.9860 15.35029728  8407,6838.969,93.809,461.809,459.86,0.0
51858.0,STARLINK-3563,PAYLOAD,2022-04-18 14:00:01,15.34519995,0.0001482,53.2175,280.2657,56.4456,205.2062,-0.022895,-0.00717102,0.0,0 STARLINK-3563,1 51858U 22022G   22108.58334491 -.00717102  00000-0 -22895-1 0  9992,2 51858  53.2175 280.2657 0001482  56.4456 205.2062 15.34519995  3671,6840.484,93.84,463.362,461.335,0.0
51858.0,STARLINK-3563,PAYLOAD,2022-04-18 22:00:00,15.34008042,0.0001345,53.2175,278.7102,60.3716,243.4214,-0.023147,-0.00713503,0.0,0 STARLINK-3563,1 51858U 22022G   22108.91667824 -.00713503  00000-0 -23147-1 0  9990,2 51858  53.2175 278.7102 0001345  60.3716 243.4214 15.34008042  3678,6842.005,93.872,464.791,462.95,0.0
51858.0,STARLINK-3563,PAYLOAD,2022-04-19 06:00:00,15.334999,0.0001240999999999,53.2175,277.1527,62.9327,282.3897,-0.023652,-0.0071706,0.0,0 STARLINK-3563,1 51858U 22022G   22109.25001157 -.00717060  00000-0 -23652-1 0  9992,2 51858  53.2175 277.1527 0001241  62.9327 282.3897 15.33499900  8550,6843.517,93.903,466.231,464.533,0.0
51858.0,STARLINK-3563,PAYLOAD,2022-04-19 14:00:01,15.32991883,0.0001457,53.2177,275.5988,46.5707,339.6665,-0.024149,-0.00720189,0.0,0 STARLINK-3563,1 51858U 22022G   22109.58334491 -.00720189  00000-0 -24149-1 0  9996,2 51858  53.2177 275.5988 0001457  46.5707 339.6665 15.32991883  3677,6845.029,93.934,467.891,465.896,0.0
51858.0,STARLINK-3563,PAYLOAD,2022-04-20 06:00:00,15.31968953,0.0001488,53.2175,272.4928,47.9668,58.2653,-0.024755,-0.00715196,0.0,0 STARLINK-3563,1 51858U 22022G   22110.25001157 -.00715196  00000-0 -24755-1 0  9997,2 51858  53.2175 272.4928 0001488  47.9668  58.2653 15.31968953  8712,6848.075,93.997,470.959,468.921,0.0
51858.0,STARLINK-3563,PAYLOAD,2022-04-20 14:00:01,15.31460292,0.0001676999999999,53.2176,270.9426,44.5853,100.7236,-0.025243,-0.00717558,0.0,0 STARLINK-3563,1 51858U 22022G   22110.58334491 -.00717558  00000-0 -25243-1 0  9990,2 51858  53.2176 270.9426 0001677  44.5853 100.7236 15.31460292  3671,6849.592,94.028,472.605,470.3080000000001,0.0
51858.0,STARLINK-3563,PAYLOAD,2022-04-20 22:00:00,15.30946848,0.0001441999999999,53.2173,269.394,61.6707,122.1033,-0.025408,-0.00711203,0.0,0 STARLINK-3563,1 51858U 22022G   22110.91667824 -.00711203  00000-0 -25408-1 0  9990,2 51858  53.2173 269.3940 0001442  61.6707 122.1033 15.30946848  3655,6851.123000000001,94.059,473.976,472.0,0.0
